OSIRIS-3U               
1 43027U 98067NL  18344.92847635  .00075970  00000-0  40619-3 0  9991
2 43027  51.6341 187.8338 0004232 160.2372 199.8794 15.79654840 60190
AEROCUBE 7B             
1 43042U 17071F   18344.95792265  .00002872  00000-0  80798-4 0  9999
2 43042  51.6384 259.6503 0004758 178.4729 181.6270 15.39984253 56830
AEROCUBE 7C             
1 43043U 17071G   18344.95789693  .00003054  00000-0  85356-4 0  9999
2 43043  51.6387 259.6597 0004875 179.8708 180.2279 15.39961419 56809
CHEFSAT                 
1 43044U 17071H   18344.95339330  .00006718  00000-0  16636-3 0  9993
2 43044  51.6392 257.4389 0004767 176.8599 183.2417 15.41636103 56838
ASGARDIA 1              
1 43049U 17071N   18344.92472328  .00003359  00000-0  92490-4 0  9991
2 43049  51.6391 259.4523 0002220 189.9199 170.1742 15.40082450 56809
ISARA                   
1 43050U 17071P   18344.85187857  .00006088  00000-0  15331-3 0  9995
2 43050  51.6384 258.2411 0002127 181.6030 178.4949 15.41307195 56813
FAUNA                   
1 43052U 17071R   18344.82962833  .00003952  00000-0  10637-3 0  9990
2 43052  51.6391 259.5811 0002193 184.5308 175.5657 15.40281336 56781
CORVUS BC3              
1 43118U 18004H   18345.14794176  .00000768  00000-0  36195-4 0  9999
2 43118  97.5124  47.8972 0010304 187.3917 172.7169 15.22535769 50630
MICROMAS-2A             
1 43131U 18004W   18344.63101168  .00001928  00000-0  83968-4 0  9999
2 43131  97.5140  47.7052 0009331 191.3625 168.7403 15.23424149 50579
CICERO 7                
1 43143U 18004AJ  18344.61391680  .00001618  00000-0  70440-4 0  9997
2 43143  97.5133  47.8698 0007124 199.0753 161.0218 15.23692850 50583
GOMX4-B                 
1 43196U 18015E   18345.25861931  .00000439  00000-0  21127-4 0  9997
2 43196  97.3683 110.8292 0017617 254.2838 105.6469 15.23776715 47497
GOMX4-A                 
1 43197U 18015F   18344.82321919  .00000468  00000-0  22283-4 0  9993
2 43197  97.3689 110.4089 0017564 255.4310 274.4996 15.23845825 47436
1KUNS-PF                
1 43466U 98067NP  18344.99846609  .00013507  00000-0  17075-3 0  9993
2 43466  51.6379 212.4414 0001570 116.4704 243.6451 15.59858488 33259
UBAKUSAT                
1 43467U 98067NQ  18344.99992302  .00009220  00000-0  12409-3 0  9999
2 43467  51.6372 213.2002 0003284  85.0351 275.1016 15.58647319 33253
BATSU-CS1 (IRAZU)       
1 43468U 98067NR  18345.06921928  .00016615  00000-0  20131-3 0  9992
2 43468  51.6373 211.4132 0001539 122.0778 238.0365 15.60786725133260
CUBERRT                 
1 43546U 98067NU  18345.03813825  .00018305  00000-0  24183-3 0  9991
2 43546  51.6370 214.9471 0006617 136.7407 223.4106 15.58397451 23362
TEMPEST-D               
1 43547U 98067NV  18345.17879062  .00003399  00000-0  54947-4 0  9991
2 43547  51.6377 215.1313 0006664 130.5659 229.5913 15.55948199 23058
RAINCUBE                
1 43548U 98067NW  18345.20268443  .00009429  00000-0  13390-3 0  9997
2 43548  51.6375 214.5423 0006702 141.5304 218.6166 15.57152829 23513
HALOSAT                 
1 43549U 98067NX  18344.94635668  .00009845  00000-0  13937-3 0  9994
2 43549  51.6377 215.8320 0006571 142.8154 217.3294 15.57179597 23033
ENDUROSAT ONE           
1 43551U 98067NZ  18344.64747865  .00013590  00000-0  18539-3 0  9992
2 43551  51.6374 216.8334 0007154 147.7963 212.3468 15.57798492 23409
EQUISAT                 
1 43552U 98067PA  18345.04823822  .00009951  00000-0  13956-3 0  9990
2 43552  51.6372 215.0121 0007348 149.5137 210.6283 15.57414480 23421
AEROCUBE 12A            
1 43556U 18046C   18344.83784546  .00000767  00000-0  40418-4 0  9998
2 43556  51.6425 246.9261 0009257 109.3693 250.8288 15.28095941 22520
AEROCUBE 12B            
1 43557U 18046D   18344.77471705  .00000522  00000-0  31648-4 0  9996
2 43557  51.6426 247.2536 0009229 109.0386 251.1594 15.28042194 22465
UITMSAT-1               
1 43589U 98067PD  18345.03474930  .00010350  00000-0  14664-3 0  9993
2 43589  51.6372 215.6672 0006657 156.3319 203.7981 15.57089097 19153
MAYA-1                  
1 43590U 98067PE  18344.64752337  .00012632  00000-0  17730-3 0  9993
2 43590  51.6373 217.5817 0006759 155.6686 204.4626 15.57107926 19022
BHUTAN-1                
1 43591U 98067PF  18345.02946057  .00010135  00000-0  14338-3 0  9998
2 43591  51.6372 215.6329 0006838 158.3481 201.7801 15.57156789 19082
SIRIUSSAT-1             
1 43595U 98067PG  18345.19443774  .00010248  00000-0  14761-3 0  9993
2 43595  51.6371 215.2300 0004662 117.0351 243.1117 15.56661009 18287
SIRIUSSAT-2             
1 43596U 98067PH  18344.88443410  .00010933  00000-0  15793-3 0  9993
2 43596  51.6382 216.9211 0005321 118.1876 241.9654 15.56499511 18230
TANUSHA-3               
1 43597U 98067PJ  18344.86825344  .00012640  00000-0  17840-3 0  9994
2 43597  51.6361 216.7899 0004876 129.1246 231.0180 15.56966909 18239
SURFSAT                 
1 43614U 18070B   18344.82023791  .00003327  00000-0  93017-4 0  9995
2 43614  93.0364 285.1652 0014909 326.6996  33.3317 15.36634196 13242
CP-7 (DAVE)             
1 43615U 18070C   18344.82008849  .00003037  00000-0  84965-4 0  9993
2 43615  93.0364 285.1659 0014950 326.3561  33.6741 15.36622283 13249
ELFIN-B                 
1 43616U 18070D   18345.13923733  .00004140  00000-0  11487-3 0  9991
2 43616  93.0336 285.2615 0016183 328.5825  31.4460 15.36834966 13291
ELFIN-A                 
1 43617U 18070E   18344.81188178  .00004821  00000-0  13367-3 0  9997
2 43617  93.0385 285.1946 0015126 326.3932  33.6360 15.36868392 13241
DEBRISSAT-1             
1 43621U 98067PM  18344.87774222  .00097575  00000-0  93187-3 0  9999
2 43621  51.6392 213.9362 0010745 165.4306 194.7051 15.65881113 13260
CUBEBEL-1 (BSUSAT-1)    
1 43666U 18083E   18345.09269521  .00000929  00000-0  50078-4 0  9994
2 43666  97.5352   5.7394 0016828 123.5943 322.8161 15.17174205  6538
DEBRISSAT-2             
1 43680U 98067PR  18344.73202669  .00014430  00000-0  20595-3 0  9992
2 43680  51.6401 217.3835 0004806 141.7850 218.3490 15.56528920 26955
CICERO 10               
1 43690U 18088A   18345.22324668  .00001310  00000-0  60104-4 0  9991
2 43690  85.0394  83.2018 0015621 173.9916 186.1515 15.19284758  4579
IRVINE01                
1 43693U 18088D   18345.19902239  .00002499  00000-0  11188-3 0  9992
2 43693  85.0370  83.1691 0019748 163.0332 197.1574 15.20550553  4565
PROXIMA I               
1 43694U 18088E   18344.59647634  .00001197  00000-0  51846-4 0  9991
2 43694  85.0337  83.5335 0020540 156.9271 203.2898 15.21039541  4482
PROXIMA II              
1 43696U 18088G   18345.05685930  .00001081  00000-0  46607-4 0  9997
2 43696  85.0338  83.2298 0020645 155.2853 204.9383 15.21046058  4549
FACSAT-1                
1 43721U 18096C   18345.16370444  .00001384  00000-0  57002-4 0  9995
2 43721  97.4840  50.1615 0016774 278.1884  81.7452 15.25730666  1832
CENTAURI-2              
1 43722U 18096D   18345.16313155  .00001906  00000-0  77210-4 0  9995
2 43722  97.4838  50.1626 0016874 279.0288  80.9040 15.25810237  1827
